Name,Address,City,State,Code,Website,Tags
21st Amendment Brewery Cafe,563 Second Street,San Francisco,CA,94107,?,?
AleSmith Brewing,9368 Cabot Drive,San Diego,CA,92126,?,?
Alpine Beer Company,2351 Alpine Boulevard,Alpine,CA,91901,?,?
American River Brewing,?,Auburn,CA,,?,?
Anchor Brewing,1705 Mariposa Street,San Francisco,CA,94107,?,?
Anderson Valley Brewing,17700 Boonville Rd,Boonville,CA,95415,?,?
BJ's Restaurant and Brewery,600 Brea Mall,Brea,CA,,?,?
Ballast Point Brewing,5401 Linda Vista Road #406,San Diego,CA,92110,?,?
Beach Chalet Brewery,1000 Great Highway,San Francisco,CA,94121,?,?
Bear Republic Brewery,345 Healdsburg Avenue,Healdsburg,CA,95448,?,?
Beermann's Beerwerks BrewPub,?,Lincoln,CA,,?,?
Bison Brewing,2598 Telegraph Avenue,Berkeley,CA,94704,?,?
Bonaventure Brewing Co,404 South Figueroa Street #418,Los Angeles,CA,90071,?,?
Bootleggers Steakhouse and Brewery,?,Bakersfield,CA,,?,?
Brew Makers,?,Mountain View,CA,,?,?
Brewpub-on-the-Green,?,Fremont,CA,,?,?
Bulldog Brewing,?,Fresno,CA,,?,?
Butte Creek Brewing,945 West Second Street,Chico,CA,95928,?,?
Butterfield Brewing #1,?,Fresno,CA,,?,?
CJ's Brewery & Grill,?,La Jolla,CA,,?,?
California Cider Company,?,San Rafael,CA,,?,?
Callahan's Pub and Brewery,8280-A Mira Mesa Boulevard,San Diego,CA,92126,?,?
Carmel Brewing,?,Salinas,CA,,?,?
Coast Range Brewing,7050 Monterey Street,Gilroy,CA,95020,?,?
Coastal Fog Brewing,?,Concord,CA,,?,?
Coronado Brewing Company,170 Orange Avenue,Coronado,CA,92118,?,?
Craftsman Brewing,1260 Lincoln Avenue #100,Pasadena,CA,91103,?,?
Del Mar Stuft Pizza and Brewing,?,San Diego,CA,,?,?
Dempsey's Restaurant & Brewery,50 East Washington Street,Petaluma,CA,94952,?,?
Devil's Canyon,?,Belmont,CA,,?,?
Drake's Brewing,1933 Davis Street #177,San Leandro,CA,94577,?,?
EJ Phair Brewing Company and Alehouse,2151 Salvio Street,Concord,CA,94520,?,?
Eel River Brewing,1777 Alamar Way,Fortuna,CA,95540,?,?
El Toro Brewing Company,17605 Monterey Road,Morgan Hill,CA,95037,?,?
Elk Grove Brewery & Restaurant,9085 Elk Grove Boulevard,Elk Grove,CA,95624,?,?
Emery Pub,?,Emeryville,CA,,?,?
English Ales Brewery,223 Reindollar Avenue,Marina,CA,93933,?,?
Etna Brewing,131 Callahan,Etna,CA,96027,?,?
Faultline Brewing #1,1235 Oakmead Parkway,Sunnyvale,CA,94086,?,?
Faultline Brewing #2,?,Walnut Creek,CA,94596,?,?
Fifty Fifty Brewing Co.,11197 Brockway Road,Truckee,CA,96161,?,?
Firehouse Grill & Brewery,111 South Murphy Avenue,Sunnyvale,CA,94086,?,?
Firestone Walker Brewing Company,1400 Ramada Drive,Paso Robles,CA,93446,?,?
Golden Gate Park Brewery,?,San Francisco,CA,,?,?
Golden Pacific Brewing,?,Berkeley,CA,,?,?
Gordon Biersch Brewing,357 East Taylor Street,San Jose,CA,95112,?,?
Green Flash Brewing,1430 Vantage Court #104A,Vista,CA,92083,?,?
Grizzly Bay Brewing,?,Suisun City,CA,,?,?
Half Moon Bay Brewing,390 Capistrano Road,Princeton by the Sea,CA,94019,?,?
HopTown Brewing,3015-D Hopyard Road,Pleasanton,CA,94588,?,?
Hoppy Brewing Company,6300 Folsom Boulevard,Sacramento,CA,95819,?,?
Hornsby's Pubdrafts Ltd.,600 Yosemite Boulevard,Modesto,CA,,?,?
Humboldt Brewing,856 10th Street,Arcata,CA,95521,?,?
Indian Wells Brewing,2565 North Highway 14,Inyokern,CA,93527,?,?
Iron Springs Pub & Brewery,765 Center Boulevard,Fairfax,CA,94930,?,?
Island Brewing Company,5049 Sixth Street,Carpinteria,CA,93013,?,?
Jack Russell Brewing,2380 Larsen Drive,Camino,CA,95709,?,?
Jack's Brewing,39176 Argonaut Way,Fremont,CA,94538,?,?
Jurupa Valley Brewing,?,Riverside,CA,,?,?
Karl Strauss Brewery Gardens - Sorrento Mesa,9675 Scranton Road,San Diego,CA,92121,?,?
Kelmer's Brewhouse,?,Santa Rosa,CA,,?,?
La Jolla Brew House,7536 Fay Avenue,La Jolla,CA,92037,?,?
La Jolla Brewing,?,La Jolla,CA,,?,?
Lagunitas Brewing Company,1280 North McDowell Boulevard,Petaluma,CA,94954,?,?
Left Coast Brewing,1245 Puerta del Sol,San Clemente,CA,92673,?,?
Lost Coast Brewery,617 Fourth Street,Eureka,CA,95501,?,?
Mad River Brewing,195 Taylor Way,Blue Lake,CA,95525,?,?
Mad River Brewing Company,101 Taylor Way,Blue Lake,CA,95525,?,?
Magnolia Pub and Brewery,1398 Haight Street,San Francisco,CA,94117,?,?
Main Street Brewery,300 North Main Street,Corona,CA,92880,?,?
Mammoth Brewing,24 Lake Mary Road,Mammoth Lakes,CA,93546,?,?
Manhattan Beach Brewing,124 Manhattan Beach Boulevard,Manhattan Beach,CA,90266,?,?
Marin Brewing,1809 Larkspur Landing Circle,Larkspur Landing,CA,94939,?,?
Mendocino Brewing - Hopland,13351 Highway 101,Hopland,CA,95449,?,?
Mendocino Brewing - Ukiah,1601 Airport Road,Ukiah,CA,95482,?,?
Moonlight Brewing,PO Box 316,Fulton,CA,95439,?,?
Moylan's Brewery & Restaurant,15 Rowland Way,Novato,CA,94945,?,?
North Coast Brewing Company,455 North Main Street,Fort Bragg,CA,95437,?,?
Oggi's Pizza and Brewing - Vista,425 South Melrose Drive,Vista,CA,92083,?,?
On Tap Bistro & Brewery,?,San Diego,CA,,?,?
PH Woods Diner and Brewery,23060 Alessandro Boulevard,Moreno Valley,CA,92553,?,?
Pacific Beach Brewhouse,?,Pacific Beach,CA,,?,?
Pacific Coast Brewing,906 Washington Street,Oakland,CA,94607,?,?
Pizza Port Brewing - Solana Beach,135 North Highway 101,Solana Beach,CA,92075,?,?
Pleasanton Main Street Brewery,830 Main Street,Pleasanton,CA,94566,?,?
Port Brewing Company,155 Mata Way Suite 104,San Marcos,CA,92069,?,?
Pyramid Alehouse | Brewery and Restaurant - Berkeley,901 Gilman Street,Berkeley,CA,94710,?,?
ReaperAle,?,Foothill Ranch,CA,,?,?
Red Kettle Brewing,?,Encinitas,CA,,?,?
Rock Bottom Restaurant & Brewery - San Jose,1875 South Bascom Avenue #700,Campbell,CA,95008,?,?
Roost Brewery,200 East Campbell Avenue,Campbell,CA,95008,?,?
Ross Valley Brewing,?,Fairfax,CA,,?,?
Rubicon Brewing,2004 Capitol Avenue,Sacramento,CA,95814,?,?
Russian River Brewing,725 Fourth Street,Santa Rosa,CA,95404,?,?
Sacramento Brewing Company,2713 El Paseo Lane,Sacramento,CA,95821,?,?
San Diego Brewing,10450-L Friars Road,San Diego,CA,92120,?,?
San Marcos Brewery & Grill,1080 West San Marcos Boulevard,San Marcos,CA,92069,?,?
Santa Barbara Brewing,501 State Street,Santa Barbara,CA,93101,?,?
Santa Cruz Brewing,?,Santa Cruz,CA,,?,?
Santa Rosa Brewing,?,Santa Rosa,CA,,?,?
Schooner's Grille & Brewery,4250 Lone Tree Way,Antioch,CA,94531,?,?
Seabright Brewery,519 Seabright Avenue #107,Santa Cruz,CA,95062,?,?
Sequoia Brewing Conoabt,777 East Olive Avenue,Fresno,CA,93728,?,?
Shmaltz Brewing Company,?,San Francisco,CA,,?,?
Shmaltz Enterprises,3435 Cesar Chavez #227,San Francisco,CA,94110,?,?
Sierra Nevada Brewing Co.,1075 East 20th Street,Chico,CA,95928,?,?
Silverado Brewing,3020 St. Helena Highway North,Saint Helena,CA,94574,?,?
Six Rivers Brewery,1300 Central Avenue,McKinleyville,CA,95519,?,?
Snowshoe Brewing - Sonora,?,Sonora,CA,,?,?
Speakeasy Ales and Lagers,1195-A Evans Avenue,San Francisco,CA,94124,?,?
Sports City Cafe & Brewery,?,La Jolla,CA,,?,?
St. Stan's Brewing Co.,821 L Street,Modesto,CA,95354,?,?
Stone Brewing Co.,1999 Citracado Parkway,Escondido,CA,92029,?,?
Sudwerk Privatbrauerei Hbsch,2001 Second Street,Davis,CA,95616,?,?
Tailgate Beer,6648 Reservoir Ln,San Diego,CA,92155,?,?
Taylor's Restaurant and Brewery,?,San Diego,CA,,?,?
The Bruery,715 Dunn Way,Placentia,CA,92870,?,?
The Hop Yard,Bollinger Canyon Rd.,San Ramon,CA,,?,?
The Lost Abbey,155 Mata Way Suite 104,San Marcos,CA,92069,?,?
Third Street Ale Works,610 Third Street,Santa Rosa,CA,95404,?,?
ThirstyBear Brewing,661 Howard Street,San Francisco,CA,94105,?,?
Tied House Cafe & Brewery - San Jose,65 North San Pedro,San Jose,CA,95110,?,?
Triple Rock Brewery,1920 Shattuck Avenue,Berkeley,CA,94704,?,?
Tustin Brewing,13011 Newport Avenue #100,Tustin,CA,92780,?,?
Ukiah Brewing,102 South State Street,Ukiah,CA,95482,?,?
Valley Brewing Company,1950 W. Fremont St.,Stockton,CA,95204,?,?
moylans Brewing company,?,Novato,CA,,?,?
