Name,Address,City,State,Code,Website,Tags
Ale Asylum,3698 Kinsman Blvd,Madison,WI,53704,?,?
Angelic Brewing,?,Madison,WI,53703,?,?
Appleton Brewing,?,Appleton,WI,,?,?
BT McClintic Beer Company,?,Beloit,WI,,?,?
Bellows Brew Crew,?,Watertown,WI,,?,?
BluCreek Brewing Company,2605 South Stoughton Road,Madison,WI,53716,?,?
Brewery Creek Brewing,23 Commerce Street,Mineral Point,WI,53565,?,?
Brewmasters Restaurant and Brewery South,?,Kenosha,WI,,?,?
Brown Street Brewery,16 North Brown Street,Rhinelander,WI,54501,?,?
Capital Brewery,7734 Terrace Avenue,Middleton,WI,53562,?,?
Central Waters Brewing Company,351 Allen Street,Amherst,WI,54406,?,?
Cherryland Brewing,?,Sturgeon Bay,WI,,?,?
City Brewing Company |,925 South Third Street,La Crosse,WI,54601,?,?
Corner Pub,100 Main Street,Reedsburg,WI,53959,?,?
Courthouse Pub,1001 South Eighth Street,Manitowoc,WI,54220,?,?
Delafield Brewhaus,3832 Hillside Drive,Delafield,WI,53018,?,?
Denmark Brewing,?,Denmark,WI,,?,?
Egan Brewing,?,De Pere,WI,,?,?
EndeHouse Brewery and Restaurant,?,Reedsburg,WI,,?,?
Esser's Cross Plains Brewery,2109 Hickory Street,Cross Plains,WI,53528,?,?
Fauerbach Brewing Company,1714 Camus Lane,Madison,WI,53705,?,?
Fox River Brewing #1,1501 Arboretum Drive,Oshkosh,WI,54901,?,?
Fratellos Restaurant and Brewery,4301 West Wisconsin,Appleton,WI,54915,?,?
G. Heileman Brewing,?,La Crosse,WI,,?,?
Gray Brewing,2424 West Court Street,Janesville,WI,53545,?,?
Great Dane Pub and Brewing #1,123 East Doty Street,Madison,WI,53703,?,?
Great Dane Pub and Brewing #2,2980 Cahill Main,Fitchburg,WI,53711,?,?
Green Bay Brewing,313 Dousman Street,Green Bay,WI,54303,?,?
Grumpy Troll Restaurant and Brewery,105 South Second Street,Mount Horeb,WI,53572,?,?
Harbor City Brewing,535 West Grand Avenue,Port Washington,WI,53074,?,?
Hereford & Hops Steakhouse and Brewpub #3,2201 Sherman Street,Wausau,WI,54401,?,?
Hops Haven Brew Haus,1327 North 14th Street,Sheboygan,WI,53081,?,?
JT Whitney's Brewpub and Eatery,674 South Whitney Way,Madison,WI,53711,?,?
Jacob Leinenkugel Brewing Company,1 Jefferson Avenue,Chippewa Falls,WI,54729,?,?
Keg Microbrewery & Restaurant,?,Stevens Point,WI,,?,?
Lake Louie Brewing,7556 Pine Road,Arena,WI,53503,?,?
Lakefront Brewery,1872 North Commerce Street,Milwaukee,WI,53212,?,?
Legends Brewhouse & Eatery of Green Bay,2840 Shawano Avenue,Green Bay,WI,54313,?,?
Loaf and Stein Brewing,?,Eagle River,WI,,?,?
Logjam Microbrewery,B-4864 Cty Rd F,Unity,WI,54488,?,?
Mambo Beer,10920 North Port Washington Road,Mequon,WI,53092,?,?
Mickey's Brewing Co.,?,Milwaukee,WI,,?,?
Miller Brewing,3939 W. Highland Blvd,Milwaukee,WI,53208,?,?
Milwaukee Ale House,233 North Water Street,Milwaukee,WI,53202,?,?
Minhas Craft Brewery,1208 14th Avenue,Monroe,WI,53566,?,?
Minocqua Brewing Company,238 Lake Shore Drive,Minocqua,WI,54548,?,?
Moosejaw Pizza & Dells Brewing Company,110 Wisconsin Dells Parkway South,Wisconsin Dells,WI,53965,?,?
New Glarus Brewing Company,2400 State Highway 69,New Glarus,WI,53574,?,?
Nicolet Brewing,?,Florence,WI,,?,?
Northwoods Brewpub Grill,3560 Oakwood Mall Drive,Eau Claire,WI,54701,?,?
Oconomowoc Brewing,?,Oconomowoc,WI,,?,?
Onopa Brewing,?,Milwaukee,WI,,?,?
Oso,1812 Post Road,Plover,WI,54467,?,?
Pearl Street Brewery,1401 Saint Andrew Street,La Crosse,WI,54603,?,?
Port Washington Brewing,?,Port Washington,WI,53074,?,?
Pumphouse Pizza and Brewing,?,Lake Delton,WI,,?,?
Rail House Restaurant and Brewpub,2029 Old Peshtigo Road,Marinette,WI,54143,?,?
Randy's Fun Hunters Brewery Restaurant and Banquet Center,841 East Milwaukee Street,Whitewater,WI,53190,?,?
Remington Watson Smith Brewing,?,Waukesha,WI,,?,?
Rock Bottom Restaurant & Brewery - Milwaukee,740 North Plankinton Avenue,Milwaukee,WI,53203,?,?
Rothaus Brauerei,?,Hartford,WI,,?,?
Rowland's Calumet Brewery,25 North Madison St,Chilton,WI,53014,?,?
Rush River Brewing,990 Antler Court,River Falls,WI,54022,?,?
Sand Creek Brewing Company,320 Pierce St,Black River Falls,WI,54615,?,?
Shipwrecked Brew Pub,7791 Egg Harbor Road,Egg Harbor,WI,54209,?,?
Slab City Brewing,?,Bonduel,WI,,?,?
South Shore Brewery,808 West Main Street,Ashland,WI,54806,?,?
Sprecher Brewing,701 West Glendale Avenue,Glendale,WI,53209,?,?
Stevens Point Brewery,2617 Water Street,Stevens Point,WI,54481,?,?
Stone Cellar Brewpub & Restaurant,1004 South Olde Oneida,Appleton,WI,54915,?,?
Stout Brothers Public House,?,Milwaukee,WI,,?,?
Sturgeon Bay Brewing,?,Sturgeon Bay,WI,54235,?,?
Tap Room Brewing Company,?,La Crosse,WI,,?,?
Titletown Brewing,200 Dousman Street,Green Bay,WI,54303,?,?
Twin Ports Brewing,?,Superior,WI,,?,?
Tyranena Brewing,1025 Owen Street,Lake Mills,WI,53551,?,?
Viking Brewing,234 Dallas Street West,Dallas,WI,54733,?,?
Water Street Brewery,1101 North Water Street,Milwaukee,WI,53202,?,?
Water Street Lake Country,3191 Golf Road,Delafield,WI,53018,?,?
White Winter Winery,7665 US Highway 2,Iron River,WI,54847,?,?
William Kuether Brewing,?,Clear Lake,WI,,?,?
Wisconsin Brewing,?,Wauwatosa,WI,,?,?
