Name,Address,City,State,Code,Website,Tags
Adnams & Co.,IP18 6JW,Southwold,?,,?,?
Bass Brewers,137 High Street,Burton-upon-Trent,?,,?,?
Black Sheep Brewery,Wellgarth,Ripon,?,,?,?
Boddington's Brewery,?,Manchester,?,,?,?
BrewDog Ltd,AB43 8UE,Fraserburgh,?,,?,?
Bulmer Cider,?,Hereford,?,,?,?
Burton Bridge Brewery,Bridge Street,Burton-upon-Trent,?,DE14 1SY,?,?
Cains,Robert Cain Brewery | Stanhope St,Liverpool,?,L8 5XJ,?,?
Camerons Brewery Company,Lion Brewery,Harltepool,?,,?,?
Charles Wells Ltd.,Havelock Street,Bedford,?,,?,?
Coniston Brewing,Coppermines Road,Coniston,?,,?,?
Courage Brewery,Tadcaster LS24 9SA,Tadcaster,?,,?,?
Cropton Brewery,Cropton,Pickering,?,,?,?
Daleside Brewery,Camwal Road,Harrogate,?,,?,?
Eldridge | Pope and Co.,?,Dorchester,?,,?,?
Elgood & Sons,Wisbech PE13 1LN,Wisbech,?,,?,?
Federation Brewery,Lancaster Road,Gateshead,?,,?,?
Frederic Robinson Ltd.,Unicorn Brewery,Stockport,?,,?,?
Freeminer Brewery,Whimsey Road,Cinderford,?,,?,?
Fuller | Smith & Turner PBC,Chiswick Lane South,London,?,,?,?
George Bateman and Son Ltd.,Mill Lane,Skegness,?,,?,?
George Gale & Company,?,Portsmouth,?,,?,?
Greene King,Westgate Street,Bury St. Edmunds,?,,?,?
HP Bulmer,The Cider Mills,Hereford,?,,?,?
Hambleton Ales,Melmerby Green Road,Melmerby,?,,?,?
Hampshire Brewery,6-8 Romsey Industrial Estate,Romsey,?,,?,?
Harvey & Son (Lewes),6 Cliffe High Street,Lewes,?,,?,?
Hook Norton Brewery,Brewery Lane,Hook Norton,?,,?,?
Hop Back Brewery,Unit 21-24 Batten Road Industrial Estate,Salisbury,?,,?,?
JW Lees and Co (Brewers) Ltd.,Middleton Junction,Manchester,?,,?,?
Jennings Brewery,Castle Brewery,Cockermouth,?,CA13 9NE,?,?
King and Barnes,?,Horsham,?,,?,?
Lanchester Brewing,Durham DH7 0NT,Durham,?,,?,?
McMullen & Sons,26 Old Cross,Hertford,?,,?,?
Meantime Brewing Company Limited,2 Penhall Road,Greenwich,?,SE7 8RX,?,?
Moorhouse's Brewery (Burnley),4 Moorhouse Street,Burnley,?,,?,?
Mordue Brewery,21A Oak Road,Wallsend,?,,?,?
Morland and Co.,?,Abingdon,?,,?,?
Nethergate Brewery Co Ltd,The Street,Pentlow,?,,?,?
O'Hanlon's Brewing Company Ltd.,Great Barton Farm,Exeter,?,,?,?
Oakham Ales,80 Westgate,Peterborough,?,,?,?
RCH Brewery,West Hewish,Weston-super-Mare,?,,?,?
Ridgeway Brewing,6 Chapel Close,South Stoke,?,,?,?
Salopian Brewery,67 Mytton Oak Road,Shrewsbury,?,,?,?
Samuel Smith Old Brewery (Tadcaster),High Street,Tadcaster,?,,?,?
Sarah Hughes Brewery,Dudley DY3 1JE,Dudley,?,,?,?
Scottish & Newcastle Breweries,Gallowgate,Newcastle-upon-Tyne,?,,?,?
Shepherd Neame,17 Court Street,Faversham,?,,?,?
St Peter's Brewery,St Peter's Hall,Bungay,?,,?,?
St. Austell Brewery,63 Trevarthian Road,St. Austell,?,PL25 4BY,?,?
T&R; Theakston,The Brewery,Ripon,?,,?,?
The Nook Brewhouse,?,?,?,,?,?
Tollemache and Cobbold Brewery,?,Ipswich,?,,?,?
Ushers of Trowbridge,?,Trowbridge,?,,?,?
WH Brakspear & Sons,?,Henley-on-Thames,?,,?,?
Watney Brewery,?,London,?,,?,?
Wells and (&) Youngs Brewing Company Ltd.,?,?,?,,?,?
Whim Ales,Hartington,Buxton,?,,?,?
Whitbread Beer Company,Porter Tun House,Luton,?,,?,?
Whitstable Brewery,Little Telpits Farm | Woodcock Lane,Maidstone,?,,?,?
Woodforde's Norfolk Ales,Woodbastwick,Norwich,?,,?,?
Wychwood Brewery,The Eagle Maltings,Witney,?,,?,?
Wychwood Brewery Company Ltd,?,?,?,,?,?
Wye Valley Brewery,Stoke Lacy HR7 4HG,Stoke Lacy,?,,?,?
York Brewery,12 Toft Green,York,?,YO1 6JT,?,?
Youngs & Company Brewery,26 Osiers Road | Wandsworth,London,?,SW18 1NH,?,?
